AOBA VELOX-IV           
1 43940U 19003J   23010.08308196  .00096343  00000+0  15134-2 0  9994
2 43940  97.1054  46.3869 0013537 109.3682 250.9036 15.53211368222008
MOVE-IIB                
1 44398U 19038N   22364.13309402  .00019028  00000+0  76981-3 0  9991
2 44398  97.6498 336.2487 0018884 162.3874 197.8024 15.24592615192784
SONATE                  
1 44400U 19038Q   23010.42822747  .00008768  00000+0  44275-3 0  9998
2 44400  97.6677 345.4892 0023660 135.7730 224.5400 15.17092702194289
LUCKY-7                 
1 44406U 19038W   23010.86511634  .00013629  00000+0  65816-3 0  9998
2 44406  97.6657 346.7432 0022724 130.8044 229.5166 15.18549281194409
BEESAT 9                
1 44412U 19038AC  23010.67358713  .00017088  00000+0  76419-3 0  9995
2 44412  97.6614 347.3316 0019943 132.6051 227.6870 15.21199701194148
JAISAT-1                
1 44419U 19038F   23010.85916970  .00019281  00000+0  85074-3 0  9991
2 44419  97.6615 348.5131 0019145 128.8088 231.4860 15.21648172194542
DUCHIFAT-3              
1 44854U 19089C   23010.87723382  .00008061  00000+0  59359-3 0  9996
2 44854  36.9648 309.1868 0005468 109.1768 276.0952 15.02945696169131
EYESAT-NANO             
1 44877U 19092E   23010.75312210  .00022176  00000+0  80891-3 0  9994
2 44877  97.4578 199.3897 0010609 354.0909   6.0203 15.28115784169957
ORBITAL FACTORY 2 (OF-2)
1 45113U 19071C   23010.66244577  .00108912  00000+0  11047-2 0  9994
2 45113  51.6323 109.1248 0006693 242.3023 117.7293 15.64362471165563
M2 PATHFINDER           
1 45727U 20037E   23010.54158879  .00001782  00000+0  17787-3 0  9990
2 45727  97.7418 187.4787 0013603  68.1329 292.1324 14.92711549137712
NETSAT-4                
1 46504U 20068U   23010.41418602  .00005509  00000+0  39304-3 0  9997
2 46504  97.7465 315.2124 0011704 355.0319   5.0787 15.04906051125158
NETSAT-3                
1 46505U 20068V   23010.56886543  .00006057  00000+0  43231-3 0  9990
2 46505  97.7444 315.2486 0010507   2.4924 357.6380 15.04859909125189
NETSAT-1                
1 46506U 20068W   23010.59329548  .00005264  00000+0  37723-3 0  9999
2 46506  97.7433 315.1841 0009524  14.4474 345.7118 15.04776382125182
NETSAT-2                
1 46507U 20068X   23010.60383217  .00005374  00000+0  38462-3 0  9998
2 46507  97.7453 315.1881 0009611  19.9711 340.1970 15.04812903125130
SAI-1 NANOCONNECT-2     
1 47701U 21015C   23010.18928974  .00026552  00000+0  81601-3 0  9990
2 47701  97.4049  91.6670 0010803  79.9031 280.3430 15.33618899103821
WILDTRACKCUBE-SIMBA     
1 47941U 21022K   23010.86952318  .00007103  00000+0  45023-3 0  9997
2 47941  97.5136 270.9456 0020642 152.8325 269.7837 15.09059559 99256
BEESAT-6                
1 47957U 21022AB  23010.46884449  .00014671  00000+0  85078-3 0  9991
2 47957  97.5115 271.2121 0019450 151.7860 208.4429 15.12107862 99049
SMOG-1                  
1 47964U 21022AJ  23010.24972296  .00014174  00000+0  78705-3 0  9990
2 47964  97.5149 272.5502 0018148 139.5675 220.6909 15.13696051 98123
MMSATS-1                
1 47976U 98067SJ  23010.95308638  .00086033  00000+0  54947-3 0  9992
2 47976  51.6368 353.1084 0003511  60.5136 330.5330 15.75618526102768
BCCSAT-1                
1 48041U 21022AK  23010.43617213  .00012421  00000+0  71501-3 0  9993
2 48041  97.5148 272.0555 0015214 137.4316 222.8097 15.12477933 98084
BEESAT-5                
1 48083U 21022AM  23010.48514730  .00015664  00000+0  89363-3 0  9991
2 48083  97.5083 271.2853 0019392 150.8318 209.4000 15.12682026 98189
BEESAT-7                
1 48084U 21022AN  23010.44591787  .00014579  00000+0  83945-3 0  9999
2 48084  97.5114 271.2297 0019522 150.6992 209.5338 15.12364007 97762
BEESAT-8                
1 48085U 21022AP  23010.48970025  .00009835  00000+0  58187-3 0  9999
2 48085  97.5121 271.1831 0019813 151.7696 208.4613 15.11481062 98327
LEDSAT                  
1 49069U 21073D   23010.46778380  .00007697  00000+0  46575-3 0  9998
2 49069  97.5034  84.2493 0024717 306.5555  53.3399 15.10650553 77061
HSU-SAT1                
1 53462U 98067UB  23010.45334387  .00122192  00000+0  10157-2 0  9995
2 53462  51.6352  20.6285 0006930   1.5948 358.5070 15.69236299 23568
FUTABA                  
1 53463U 98067UC  23010.72234208  .00199512  00000+0  12640-2 0  9996
2 53463  51.6330  17.1495 0007162  15.9259 344.1965 15.75375753 23639
TUMNANOSAT              
1 53464U 98067UD  23010.71704565  .00346374  00000+0  14940-2 0  9999
2 53464  51.6313  14.8426 0007421  34.7245 325.4242 15.83442127 23663
1998-067UL              
1 54534U 98067UL  23010.92730766  .00071232  00000+0  10706-2 0  9997
2 54534  51.6410  26.8204 0003083 289.2785  70.7872 15.54203719  6203
1998-067UM              
1 54535U 98067UM  23010.86799536  .00067763  00000+0  99963-3 0  9998
2 54535  51.6426  27.0381 0002645 297.0189 124.9076 15.54737674  6196
1998-067UN              
1 54536U 98067UN  23010.87793461  .00052916  00000+0  80928-3 0  9996
2 54536  51.6439  27.1048 0003528 283.9740 138.8650 15.53850463  6159
1998-067UP              
1 54537U 98067UP  23010.87285225  .00058608  00000+0  88216-3 0  9993
2 54537  51.6431  27.0708 0003246 283.5370 138.5119 15.54246172  6194
MARIO                   
1 55123U 98067UQ  23010.33223986  .00062553  00000+0  10244-2 0  9991
2 55123  51.6423  30.3449 0002545 307.6609  52.4150 15.51883838  1917
NUTSAT                  
1 55124U 98067UR  23010.46064346  .00089135  00000+0  14353-2 0  9999
2 55124  51.6423  29.7024 0002169 306.3627  53.7162 15.52199386  1924
LORIS                   
1 55125U 98067US  23010.33319811  .00052734  00000+0  87297-3 0  9999
2 55125  51.6422  30.3508 0003354 299.7189  60.3467 15.51653088  1929
ORCASAT                 
1 55126U 98067UT  23010.59139305  .00049559  00000+0  82456-3 0  9999
2 55126  51.6421  29.0755 0003451 300.1152  59.9495 15.51538143  1966
DANTESAT                
1 55127U 98067UU  23010.74773978  .00693311  00000+0  70457-2 0  9995
2 55127  51.6392  27.8684 0004522  95.0780 265.0730 15.62371807  1953
TJREVERB                
1 55128U 98067UV  23010.33523871  .00051210  00000+0  85678-3 0  9994
2 55128  51.6419  30.3646 0004310 277.7895  82.2605 15.51364905  1917
SPORT                   
1 55129U 98067UW  23010.33710301  .00030435  00000+0  52264-3 0  9992
2 55129  51.6421  30.3772 0002318 263.6662  96.4063 15.50882457  1914
PETITSAT                
1 55130U 98067UX  23010.33736509  .00028418  00000+0  48975-3 0  9994
2 55130  51.6418  30.3790 0002378 264.3856  95.6862 15.50818712  1866
